NORAD_CAT_ID,OBJECT_NAME,OBJECT_TYPE,EPOCH,MEAN_MOTION,ECCENTRICITY,INCLINATION,RA_OF_ASC_NODE,ARG_OF_PERICENTER,MEAN_ANOMALY,BSTAR,MEAN_MOTION_DOT,MEAN_MOTION_DDOT,TLE_LINE0,TLE_LINE1,TLE_LINE2,SEMIMAJOR_AXIS,PERIOD,APOGEE,PERIGEE,DECAYED
50835.0,STARLINK-3310,PAYLOAD,2022-11-20 20:29:28,15.08827126,0.0002137,53.2163,187.8398,43.6646,316.4514,0.0010819,0.00016966,0.0,0 STARLINK-3310,1 50835U 22001AJ  22324.85380389  .00016966  00000-0  10819-2 0  9992,2 50835  53.2163 187.8398 0002137  43.6646 316.4514 15.08827126 48375,6917.92,95.438,541.263,538.306,0.0
50835.0,STARLINK-3310,PAYLOAD,2022-11-21 02:51:00,15.08851046,0.000236,53.2164,186.6504,46.1747,313.944,0.00058707,9.07e-05,0.0,0 STARLINK-3310,1 50835U 22001AJ  22325.11875208  .00009070  00000-0  58707-3 0  9998,2 50835  53.2164 186.6504 0002360  46.1747 313.9440 15.08851046 49672,6917.847,95.437,541.344,538.0790000000002,0.0
50835.0,STARLINK-3310,PAYLOAD,2022-11-21 20:20:14,15.08859907,0.0002344,53.2161,183.3796,47.74800000000001,312.3711,0.00046861,7.182e-05,0.0,0 STARLINK-3310,1 50835U 22001AJ  22325.84738429  .00007182  00000-0  46861-3 0  9991,2 50835  53.2161 183.3796 0002344  47.7480 312.3711 15.08859907 48520,6917.82,95.436,541.306,538.063,0.0
50835.0,STARLINK-3310,PAYLOAD,2022-11-22 02:41:46,15.08847093,0.000248,53.2159,182.1902,46.7623,313.3576,3.3317e-05,2.42e-06,0.0,0 STARLINK-3310,1 50835U 22001AJ  22326.11234603  .00000242  00000-0  33317-4 0  9990,2 50835  53.2159 182.1902 0002480  46.7623 313.3576 15.08847093 49829,6917.859,95.437,541.439,538.008,0.0
50835.0,STARLINK-3310,PAYLOAD,2022-11-22 20:11:00,15.08847447,0.0002444,53.2156,178.9193,47.777,312.343,5.7837e-05,6.32e-06,0.0,0 STARLINK-3310,1 50835U 22001AJ  22326.84098300  .00000632  00000-0  57837-4 0  9998,2 50835  53.2156 178.9193 0002444  47.7770 312.3430 15.08847447 48678,6917.858,95.437,541.413,538.0319999999998,0.0
50835.0,STARLINK-3310,PAYLOAD,2022-11-23 07:18:42,15.08850052,0.0002463,53.2154,176.8377,48.6884,311.432,0.00014533,2.026e-05,0.0,0 STARLINK-3310,1 50835U 22001AJ  22327.30466019  .00002026  00000-0  14533-3 0  9990,2 50835  53.2154 176.8377 0002463  48.6884 311.4320 15.08850052 50008,6917.85,95.437,541.419,538.011,0.0
50835.0,STARLINK-3310,PAYLOAD,2022-11-23 20:01:47,15.08839846,0.0002453,53.2155,174.4586,50.0613,310.0594,-5.3782e-05,-1.144e-05,0.0,0 STARLINK-3310,1 50835U 22001AJ  22327.83458323 -.00001144  00000-0 -53782-4 0  9999,2 50835  53.2155 174.4586 0002453  50.0613 310.0594 15.08839846 50085,6917.880999999999,95.438,541.443,538.049,0.0
50835.0,STARLINK-3310,PAYLOAD,2022-11-24 07:09:30,15.08836836,0.0002428,53.2159,172.377,49.965,310.1555,3.614e-05,2.87e-06,0.0,0 STARLINK-3310,1 50835U 22001AJ  22328.29826743  .00000287  00000-0  36140-4 0  9999,2 50835  53.2159 172.3770 0002428  49.9650 310.1555 15.08836836 48891,6917.89,95.438,541.435,538.075,0.0
50835.0,STARLINK-3310,PAYLOAD,2022-11-24 19:52:35,15.08841487,0.0002409,53.2171,169.9979,51.1596,308.961,4.1712e-05,3.76e-06,0.0,0 STARLINK-3310,1 50835U 22001AJ  22328.82818781  .00000376  00000-0  41712-4 0  9991,2 50835  53.2171 169.9979 0002409  51.1596 308.9610 15.08841487 48975,6917.876,95.437,541.4069999999998,538.0740000000002,0.0
50835.0,STARLINK-3310,PAYLOAD,2022-11-24 21:27:58,15.08841688,0.0002418,53.2171,169.7006,51.1763,308.9445,3.8787e-05,3.29e-06,0.0,0 STARLINK-3310,1 50835U 22001AJ  22328.89442750  .00000329  00000-0  38787-4 0  9993,2 50835  53.2171 169.7006 0002418  51.1763 308.9445 15.08841688 50242,6917.875,95.437,541.413,538.067,0.0
50835.0,STARLINK-3310,PAYLOAD,2022-11-25 07:00:17,15.08842895,0.0002433,53.2171,167.9165,51.2342,308.8867,1.9925e-05,2.9e-07,0.0,0 STARLINK-3310,1 50835U 22001AJ  22329.29186598  .00000029  00000-0  19925-4 0  9993,2 50835  53.2171 167.9165 0002433  51.2342 308.8867 15.08842895 49043,6917.871999999999,95.437,541.42,538.053,0.0
50835.0,STARLINK-3310,PAYLOAD,2022-11-25 19:43:22,15.08842189,0.0002452,53.2171,165.5377,51.6705,308.4507,0.00015625,2.199e-05,0.0,0 STARLINK-3310,1 50835U 22001AJ  22329.82178412  .00002199  00000-0  15625-3 0  9990,2 50835  53.2171 165.5377 0002452  51.6705 308.4507 15.08842189 49122,6917.874,95.437,541.435,538.0419999999998,0.0
50835.0,STARLINK-3310,PAYLOAD,2022-11-25 22:54:08,15.08843227,0.0002459,53.2171,164.9429,52.0452,308.0762,0.00016638,2.361e-05,0.0,0 STARLINK-3310,1 50835U 22001AJ  22329.95426386  .00002361  00000-0  16638-3 0  9996,2 50835  53.2171 164.9429 0002459  52.0452 308.0762 15.08843227 50400,6917.871,95.437,541.437,538.034,0.0
50835.0,STARLINK-3310,PAYLOAD,2022-11-26 13:12:36,15.08846915,0.0002477,53.217,162.2665,53.0691,307.0527,0.00016344,2.314e-05,0.0,0 STARLINK-3310,1 50835U 22001AJ  22330.55042087  .00002314  00000-0  16344-3 0  9998,2 50835  53.2170 162.2665 0002477  53.0691 307.0527 15.08846915 49232,6917.859,95.437,541.438,538.011,0.0
50835.0,STARLINK-3310,PAYLOAD,2022-11-26 17:58:45,15.08849516,0.0002491,53.217,161.3745,53.5438,306.5784,0.00017004,2.42e-05,0.0,0 STARLINK-3310,1 50835U 22001AJ  22330.74913848  .00002420  00000-0  17004-3 0  9993,2 50835  53.2170 161.3745 0002491  53.5438 306.5784 15.08849516 49263,6917.851,95.437,541.44,537.993,0.0
50835.0,STARLINK-3310,PAYLOAD,2022-11-27 13:03:23,15.08838738,0.0002585,53.2158,157.806,55.1153,305.0082,-3.5978e-05,-8.61e-06,0.0,0 STARLINK-3310,1 50835U 22001AJ  22331.54402328 -.00000861  00000-0 -35978-4 0  9998,2 50835  53.2158 157.8060 0002585  55.1153 305.0082 15.08838738 50648,6917.884,95.438,541.538,537.961,0.0
50835.0,STARLINK-3310,PAYLOAD,2022-11-27 19:24:56,15.08840352,0.0002608,53.2161,156.6166,56.5445,303.5796,-3.8246e-05,-8.97e-06,0.0,0 STARLINK-3310,1 50835U 22001AJ  22331.80898187 -.00000897  00000-0 -38246-4 0  9999,2 50835  53.2161 156.6166 0002608  56.5445 303.5796 15.08840352 49425,6917.879,95.438,541.548,537.94,0.0
50835.0,STARLINK-3310,PAYLOAD,2022-11-28 14:29:33,15.088460199999998,0.0002528,53.2166,153.0484,56.3359,303.7874,-1.0057e-06,-3.04e-06,0.0,0 STARLINK-3310,1 50835U 22001AJ  22332.60385932 -.00000304  00000-0 -10057-5 0  9991,2 50835  53.2166 153.0484 0002528  56.3359 303.7874 15.08846020 49547,6917.861999999999,95.437,541.476,537.9780000000002,0.0
50835.0,STARLINK-3310,PAYLOAD,2022-11-28 19:15:42,15.08846056,0.0002555,53.2169,152.1561,56.4198,303.7038,-1.1547e-05,-4.72e-06,0.0,0 STARLINK-3310,1 50835U 22001AJ  22332.80257892 -.00000472  00000-0 -11547-4 0  9996,2 50835  53.2169 152.1561 0002555  56.4198 303.7038 15.08846056 50833,6917.861999999999,95.437,541.494,537.9590000000002,0.0
50835.0,STARLINK-3310,PAYLOAD,2022-11-29 11:09:33,15.08842465,0.0002515,53.2169,149.1824,55.8718,304.2512,0.00010405,1.368e-05,0.0,0 STARLINK-3310,1 50835U 22001AJ  22333.46497658  .00001368  00000-0  10405-3 0  9999,2 50835  53.2169 149.1824 0002515  55.8718 304.2512 15.08842465 49671,6917.873000000001,95.437,541.4780000000002,537.998,0.0
50835.0,STARLINK-3310,PAYLOAD,2022-11-30 04:38:49,15.08832033,0.0002555,53.217,145.9115,56.2922,303.8313,-2.1193e-06,-3.22e-06,0.0,0 STARLINK-3310,1 50835U 22001AJ  22334.19362762 -.00000322  00000-0 -21193-5 0  9996,2 50835  53.2170 145.9115 0002555  56.2922 303.8313 15.08832033 51044,6917.905,95.438,541.5369999999998,538.002,0.0
50835.0,STARLINK-3310,PAYLOAD,2022-11-30 11:00:21,15.08833584,0.0002466,53.217,144.7218,57.1291,302.9938,9.0372e-06,-1.45e-06,0.0,0 STARLINK-3310,1 50835U 22001AJ  22334.45858716 -.00000145  00000-0  90372-5 0  9991,2 50835  53.2170 144.7218 0002466  57.1291 302.9938 15.08833584 49823,6917.9,95.438,541.471,538.059,0.0
50835.0,STARLINK-3310,PAYLOAD,2022-11-30 14:11:08,15.08833776,0.0002461,53.2169,144.127,57.139,302.9839,8.2e-06,-1.58e-06,0.0,0 STARLINK-3310,1 50835U 22001AJ  22334.59106755 -.00000158  00000-0  82000-5 0  9998,2 50835  53.2169 144.1270 0002461  57.1390 302.9839 15.08833776 49843,6917.899,95.438,541.467,538.062,0.0
50835.0,STARLINK-3310,PAYLOAD,2022-12-01 04:29:36,15.08838332,0.0002476,53.2169,141.4506,57.6413,302.4818,2.7792e-05,1.54e-06,0.0,0 STARLINK-3310,1 50835U 22001AJ  22335.18722610  .00000154  00000-0  27792-4 0  9999,2 50835  53.2169 141.4506 0002476  57.6413 302.4818 15.08838332 51198,6917.885,95.438,541.4630000000002,538.038,0.0
50835.0,STARLINK-3310,PAYLOAD,2022-12-01 10:51:08,15.08839417,0.0002466,53.2168,140.2611,57.7988,302.3243,2.9883e-05,1.87e-06,0.0,0 STARLINK-3310,1 50835U 22001AJ  22335.45218571  .00000187  00000-0  29883-4 0  9994,2 50835  53.2168 140.2611 0002466  57.7988 302.3243 15.08839417 49977,6917.882,95.438,541.453,538.0409999999998,0.0
50835.0,STARLINK-3310,PAYLOAD,2022-12-01 17:12:41,15.08841921,0.000249,53.2168,139.0717,59.3062,300.8175,5.1359e-05,5.29e-06,0.0,0 STARLINK-3310,1 50835U 22001AJ  22335.71714404  .00000529  00000-0  51359-4 0  9992,2 50835  53.2168 139.0717 0002490  59.3062 300.8175 15.08841921 50015,6917.875,95.437,541.462,538.0169999999998,0.0
50835.0,STARLINK-3310,PAYLOAD,2022-12-02 10:41:56,15.08832412,0.0002548,53.2166,135.8026,59.6165,300.5079,0.00018972,2.732e-05,0.0,0 STARLINK-3310,1 50835U 22001AJ  22336.44579119  .00002732  00000-0  18972-3 0  9996,2 50835  53.2166 135.8026 0002548  59.6165 300.5079 15.08832412 51387,6917.904,95.438,541.531,538.006,0.0
50835.0,STARLINK-3310,PAYLOAD,2022-12-02 20:14:15,15.08829596,0.0002435,53.2162,134.0169,61.7848,298.3389,5.564100000000001e-05,5.97e-06,0.0,0 STARLINK-3310,1 50835U 22001AJ  22336.84323713  .00000597  00000-0  55641-4 0  9999,2 50835  53.2162 134.0169 0002435  61.7848 298.3389 15.08829596 50183,6917.9119999999975,95.438,541.462,538.0930000000002,0.0
50835.0,STARLINK-3310,PAYLOAD,2022-12-03 13:43:30,15.08835196,0.0002443,53.2163,130.746,62.6322,297.4919,0.00011459,1.536e-05,0.0,0 STARLINK-3310,1 50835U 22001AJ  22337.57187931  .00001536  00000-0  11459-3 0  9992,2 50835  53.2163 130.7460 0002443  62.6322 297.4919 15.08835196 51551,6917.895,95.438,541.45,538.07,0.0
